[{"OBJECT_NAME":"GAOFEN-6","OBJECT_ID":"2018-048A","EPOCH":"2026-04-01T11:55:34.212000","MEAN_MOTION":14.76637944,"ECCENTRICITY":0.0013558,"INCLINATION":97.7834,"RA_OF_ASC_NODE":156.9677,"ARG_OF_PERICENTER":68.3715,"MEAN_ANOMALY":291.8938,"EPHEMERIS_TYPE":0,"CLASSIFICATION_TYPE":"U","NORAD_CAT_ID":43484,"ELEMENT_SET_NO":999,"REV_AT_EPOCH":42207,"BSTAR":0.00018442,"MEAN_MOTION_DOT":1.241e-5,"MEAN_MOTION_DDOT":0},{"OBJECT_NAME":"GAOFEN-11 01","OBJECT_ID":"2018-063A","EPOCH":"2026-04-01T11:45:22.431744","MEAN_MOTION":15.53046722,"ECCENTRICITY":0.0002508,"INCLINATION":97.1373,"RA_OF_ASC_NODE":158.6852,"ARG_OF_PERICENTER":242.9476,"MEAN_ANOMALY":117.1522,"EPHEMERIS_TYPE":0,"CLASSIFICATION_TYPE":"U","NORAD_CAT_ID":43585,"ELEMENT_SET_NO":999,"REV_AT_EPOCH":42843,"BSTAR":0.00035211,"MEAN_MOTION_DOT":0.00021927,"MEAN_MOTION_DDOT":0},{"OBJECT_NAME":"ICESAT-2","OBJECT_ID":"2018-070A","EPOCH":"2026-04-01T11:29:53.595456","MEAN_MOTION":15.282962,"ECCENTRICITY":0.0004285,"INCLINATION":91.9992,"RA_OF_ASC_NODE":270.3007,"ARG_OF_PERICENTER":82.0347,"MEAN_ANOMALY":278.1389,"EPHEMERIS_TYPE":0,"CLASSIFICATION_TYPE":"U","NORAD_CAT_ID":43613,"ELEMENT_SET_NO":999,"REV_AT_EPOCH":42074,"BSTAR":0.00012001,"MEAN_MOTION_DOT":3.309e-5,"MEAN_MOTION_DDOT":0},{"OBJECT_NAME":"HYSIS","OBJECT_ID":"2018-096A","EPOCH":"2026-04-01T11:21:33.418944","MEAN_MOTION":14.78615156,"ECCENTRICITY":0.0001635,"INCLINATION":97.9905,"RA_OF_ASC_NODE":158.8015,"ARG_OF_PERICENTER":66.9791,"MEAN_ANOMALY":293.1592,"EPHEMERIS_TYPE":0,"CLASSIFICATION_TYPE":"U","NORAD_CAT_ID":43719,"ELEMENT_SET_NO":999,"REV_AT_EPOCH":39608,"BSTAR":0.00024653,"MEAN_MOTION_DOT":1.753e-5,"MEAN_MOTION_DDOT":0},{"OBJECT_NAME":"KAZSTSAT","OBJECT_ID":"2018-099AB","EPOCH":"2026-04-01T00:55:00.518016","MEAN_MOTION":14.99690486,"ECCENTRICITY":0.0003537,"INCLINATION":97.4363,"RA_OF_ASC_NODE":126.434,"ARG_OF_PERICENTER":299.5703,"MEAN_ANOMALY":60.5168,"EPHEMERIS_TYPE":0,"CLASSIFICATION_TYPE":"U","NORAD_CAT_ID":43783,"ELEMENT_SET_NO":999,"REV_AT_EPOCH":39974,"BSTAR":0.0001788,"MEAN_MOTION_DOT":2.15e-5,"MEAN_MOTION_DDOT":0},{"OBJECT_NAME":"SAUDISAT 5A","OBJECT_ID":"2018-102A","EPOCH":"2026-04-01T12:39:06.415776","MEAN_MOTION":15.2724307,"ECCENTRICITY":0.0010978,"INCLINATION":97.3145,"RA_OF_ASC_NODE":154.6012,"ARG_OF_PERICENTER":52.9927,"MEAN_ANOMALY":307.2315,"EPHEMERIS_TYPE":0,"CLASSIFICATION_TYPE":"U","NORAD_CAT_ID":43831,"ELEMENT_SET_NO":999,"REV_AT_EPOCH":40397,"BSTAR":0.00023905,"MEAN_MOTION_DOT":6.319e-5,"MEAN_MOTION_DDOT":0},{"OBJECT_NAME":"SAUDISAT 5B","OBJECT_ID":"2018-102C","EPOCH":"2026-04-01T11:51:57.665088","MEAN_MOTION":15.27538734,"ECCENTRICITY":0.001174,"INCLINATION":97.3244,"RA_OF_ASC_NODE":157.5011,"ARG_OF_PERICENTER":54.6124,"MEAN_ANOMALY":305.621,"EPHEMERIS_TYPE":0,"CLASSIFICATION_TYPE":"U","NORAD_CAT_ID":43833,"ELEMENT_SET_NO":999,"REV_AT_EPOCH":40408,"BSTAR":0.00021704,"MEAN_MOTION_DOT":5.784e-5,"MEAN_MOTION_DDOT":0},{"OBJECT_NAME":"GAOFEN-10R","OBJECT_ID":"2019-066A","EPOCH":"2026-04-01T12:06:08.636832","MEAN_MOTION":14.82873541,"ECCENTRICITY":0.0006547,"INCLINATION":98.0432,"RA_OF_ASC_NODE":44.5656,"ARG_OF_PERICENTER":37.8332,"MEAN_ANOMALY":322.3341,"EPHEMERIS_TYPE":0,"CLASSIFICATION_TYPE":"U","NORAD_CAT_ID":44622,"ELEMENT_SET_NO":999,"REV_AT_EPOCH":35101,"BSTAR":0.00021812,"MEAN_MOTION_DOT":1.713e-5,"MEAN_MOTION_DDOT":0},{"OBJECT_NAME":"CARTOSAT-3","OBJECT_ID":"2019-081A","EPOCH":"2026-04-01T11:48:30.676608","MEAN_MOTION":15.19244666,"ECCENTRICITY":0.0013236,"INCLINATION":97.4388,"RA_OF_ASC_NODE":154.5624,"ARG_OF_PERICENTER":64.6684,"MEAN_ANOMALY":295.592,"EPHEMERIS_TYPE":0,"CLASSIFICATION_TYPE":"U","NORAD_CAT_ID":44804,"ELEMENT_SET_NO":999,"REV_AT_EPOCH":35182,"BSTAR":0.00025258,"MEAN_MOTION_DOT":5.266e-5,"MEAN_MOTION_DDOT":0},{"OBJECT_NAME":"GAOFEN-12 01","OBJECT_ID":"2019-082A","EPOCH":"2026-04-01T12:01:21.509760","MEAN_MOTION":14.80391886,"ECCENTRICITY":6.52e-5,"INCLINATION":97.8133,"RA_OF_ASC_NODE":99.9,"ARG_OF_PERICENTER":66.8749,"MEAN_ANOMALY":293.2532,"EPHEMERIS_TYPE":0,"CLASSIFICATION_TYPE":"U","NORAD_CAT_ID":44819,"ELEMENT_SET_NO":999,"REV_AT_EPOCH":34274,"BSTAR":7.5874e-5,"MEAN_MOTION_DOT":5.29e-6,"MEAN_MOTION_DDOT":0},{"OBJECT_NAME":"CSG-1","OBJECT_ID":"2019-092A","EPOCH":"2026-04-01T11:51:56.255040","MEAN_MOTION":14.8216115,"ECCENTRICITY":0.0001321,"INCLINATION":97.8881,"RA_OF_ASC_NODE":276.2039,"ARG_OF_PERICENTER":85.9628,"MEAN_ANOMALY":274.1736,"EPHEMERIS_TYPE":0,"CLASSIFICATION_TYPE":"U","NORAD_CAT_ID":44873,"ELEMENT_SET_NO":999,"REV_AT_EPOCH":34011,"BSTAR":8.6475e-5,"MEAN_MOTION_DOT":6.36e-6,"MEAN_MOTION_DDOT":0},{"OBJECT_NAME":"NEMO-HD","OBJECT_ID":"2020-061F","EPOCH":"2026-04-01T12:22:52.324032","MEAN_MOTION":15.43042312,"ECCENTRICITY":0.0001146,"INCLINATION":97.1999,"RA_OF_ASC_NODE":154.3013,"ARG_OF_PERICENTER":68.3185,"MEAN_ANOMALY":291.8185,"EPHEMERIS_TYPE":0,"CLASSIFICATION_TYPE":"U","NORAD_CAT_ID":46277,"ELEMENT_SET_NO":999,"REV_AT_EPOCH":31015,"BSTAR":0.00028065,"MEAN_MOTION_DOT":0.00012306,"MEAN_MOTION_DDOT":0},{"OBJECT_NAME":"SENTINEL-6A","OBJECT_ID":"2020-086A","EPOCH":"2026-04-01T11:49:57.240768","MEAN_MOTION":12.80930522,"ECCENTRICITY":0.0007726,"INCLINATION":66.0406,"RA_OF_ASC_NODE":294.3497,"ARG_OF_PERICENTER":270.8201,"MEAN_ANOMALY":89.1929,"EPHEMERIS_TYPE":0,"CLASSIFICATION_TYPE":"U","NORAD_CAT_ID":46984,"ELEMENT_SET_NO":999,"REV_AT_EPOCH":25050,"BSTAR":9.4593e-5,"MEAN_MOTION_DOT":-3.9e-7,"MEAN_MOTION_DDOT":0},{"OBJECT_NAME":"GAOFEN-12 02","OBJECT_ID":"2021-026A","EPOCH":"2026-04-01T12:05:34.414656","MEAN_MOTION":14.80229917,"ECCENTRICITY":0.0006104,"INCLINATION":97.9926,"RA_OF_ASC_NODE":90.0046,"ARG_OF_PERICENTER":115.6585,"MEAN_ANOMALY":244.5258,"EPHEMERIS_TYPE":0,"CLASSIFICATION_TYPE":"U","NORAD_CAT_ID":48079,"ELEMENT_SET_NO":999,"REV_AT_EPOCH":27041,"BSTAR":7.727e-5,"MEAN_MOTION_DOT":5.35e-6,"MEAN_MOTION_DDOT":0},{"OBJECT_NAME":"PLEIADES NEO 3","OBJECT_ID":"2021-034A","EPOCH":"2026-04-01T12:52:13.359936","MEAN_MOTION":14.81674772,"ECCENTRICITY":0.0001277,"INCLINATION":97.8937,"RA_OF_ASC_NODE":167.4035,"ARG_OF_PERICENTER":91.0677,"MEAN_ANOMALY":269.0682,"EPHEMERIS_TYPE":0,"CLASSIFICATION_TYPE":"U","NORAD_CAT_ID":48268,"ELEMENT_SET_NO":999,"REV_AT_EPOCH":26630,"BSTAR":0.00014584,"MEAN_MOTION_DOT":1.096e-5,"MEAN_MOTION_DDOT":0},{"OBJECT_NAME":"PLEIADES NEO 4","OBJECT_ID":"2021-073E","EPOCH":"2026-04-01T12:03:34.990848","MEAN_MOTION":14.81674668,"ECCENTRICITY":0.0001277,"INCLINATION":97.8935,"RA_OF_ASC_NODE":167.3662,"ARG_OF_PERICENTER":96.6152,"MEAN_ANOMALY":263.5207,"EPHEMERIS_TYPE":0,"CLASSIFICATION_TYPE":"U","NORAD_CAT_ID":49070,"ELEMENT_SET_NO":999,"REV_AT_EPOCH":25001,"BSTAR":-8.7465e-7,"MEAN_MOTION_DOT":-5.9e-7,"MEAN_MOTION_DDOT":0},{"OBJECT_NAME":"LANDSAT 9","OBJECT_ID":"2021-088A","EPOCH":"2026-04-01T10:11:04.847424","MEAN_MOTION":14.57119982,"ECCENTRICITY":0.0001157,"INCLINATION":98.19,"RA_OF_ASC_NODE":162.839,"ARG_OF_PERICENTER":97.0014,"MEAN_ANOMALY":263.1316,"EPHEMERIS_TYPE":0,"CLASSIFICATION_TYPE":"U","NORAD_CAT_ID":49260,"ELEMENT_SET_NO":999,"REV_AT_EPOCH":23982,"BSTAR":0.00010194,"MEAN_MOTION_DOT":4.14e-6,"MEAN_MOTION_DDOT":0},{"OBJECT_NAME":"CSG-2","OBJECT_ID":"2022-008A","EPOCH":"2026-04-01T11:03:17.664768","MEAN_MOTION":14.82164242,"ECCENTRICITY":0.0001315,"INCLINATION":97.8874,"RA_OF_ASC_NODE":276.1674,"ARG_OF_PERICENTER":87.4162,"MEAN_ANOMALY":272.7201,"EPHEMERIS_TYPE":0,"CLASSIFICATION_TYPE":"U","NORAD_CAT_ID":51444,"ELEMENT_SET_NO":999,"REV_AT_EPOCH":22522,"BSTAR":7.7734e-5,"MEAN_MOTION_DOT":5.67e-6,"MEAN_MOTION_DDOT":0},{"OBJECT_NAME":"GAOFEN-12 03","OBJECT_ID":"2022-069A","EPOCH":"2026-04-01T12:26:29.143968","MEAN_MOTION":14.79904501,"ECCENTRICITY":0.0002225,"INCLINATION":97.8382,"RA_OF_ASC_NODE":341.2889,"ARG_OF_PERICENTER":66.6158,"MEAN_ANOMALY":293.5288,"EPHEMERIS_TYPE":0,"CLASSIFICATION_TYPE":"U","NORAD_CAT_ID":52912,"ELEMENT_SET_NO":999,"REV_AT_EPOCH":20327,"BSTAR":0.00019256,"MEAN_MOTION_DOT":1.402e-5,"MEAN_MOTION_DDOT":0},{"OBJECT_NAME":"SWOT","OBJECT_ID":"2022-173A","EPOCH":"2026-04-01T12:46:23.102112","MEAN_MOTION":14.00173376,"ECCENTRICITY":7.29e-5,"INCLINATION":77.6091,"RA_OF_ASC_NODE":138.7909,"ARG_OF_PERICENTER":208.6999,"MEAN_ANOMALY":151.4112,"EPHEMERIS_TYPE":0,"CLASSIFICATION_TYPE":"U","NORAD_CAT_ID":54754,"ELEMENT_SET_NO":999,"REV_AT_EPOCH":16842,"BSTAR":9.0053e-5,"MEAN_MOTION_DOT":1.3e-6,"MEAN_MOTION_DDOT":0},{"OBJECT_NAME":"GAOFEN-12 04","OBJECT_ID":"2023-123A","EPOCH":"2026-04-01T13:04:06.605760","MEAN_MOTION":14.80068148,"ECCENTRICITY":0.0001349,"INCLINATION":97.913,"RA_OF_ASC_NODE":10.6705,"ARG_OF_PERICENTER":74.4628,"MEAN_ANOMALY":285.6733,"EPHEMERIS_TYPE":0,"CLASSIFICATION_TYPE":"U","NORAD_CAT_ID":57654,"ELEMENT_SET_NO":999,"REV_AT_EPOCH":14129,"BSTAR":0.000188,"MEAN_MOTION_DOT":1.373e-5,"MEAN_MOTION_DDOT":0},{"OBJECT_NAME":"PARS 1","OBJECT_ID":"2024-039Q","EPOCH":"2026-04-01T11:55:27.870240","MEAN_MOTION":15.44064678,"ECCENTRICITY":0.001108,"INCLINATION":97.4778,"RA_OF_ASC_NODE":70.1197,"ARG_OF_PERICENTER":43.0052,"MEAN_ANOMALY":317.206,"EPHEMERIS_TYPE":0,"CLASSIFICATION_TYPE":"U","NORAD_CAT_ID":59065,"ELEMENT_SET_NO":999,"REV_AT_EPOCH":11680,"BSTAR":0.00030272,"MEAN_MOTION_DOT":0.00013774,"MEAN_MOTION_DDOT":0},{"OBJECT_NAME":"RESURS-P 4","OBJECT_ID":"2024-061A","EPOCH":"2026-04-01T12:37:20.892000","MEAN_MOTION":15.33126853,"ECCENTRICITY":8.88e-5,"INCLINATION":97.269,"RA_OF_ASC_NODE":40.786,"ARG_OF_PERICENTER":71.6017,"MEAN_ANOMALY":288.5322,"EPHEMERIS_TYPE":0,"CLASSIFICATION_TYPE":"U","NORAD_CAT_ID":59371,"ELEMENT_SET_NO":999,"REV_AT_EPOCH":11202,"BSTAR":0.0001473,"MEAN_MOTION_DOT":4.636e-5,"MEAN_MOTION_DDOT":0},{"OBJECT_NAME":"LEGION 1","OBJECT_ID":"2024-081A","EPOCH":"2026-04-01T11:57:45.140832","MEAN_MOTION":15.16563613,"ECCENTRICITY":0.0008492,"INCLINATION":97.5046,"RA_OF_ASC_NODE":170.1622,"ARG_OF_PERICENTER":287.9751,"MEAN_ANOMALY":72.0556,"EPHEMERIS_TYPE":0,"CLASSIFICATION_TYPE":"U","NORAD_CAT_ID":59625,"ELEMENT_SET_NO":999,"REV_AT_EPOCH":10591,"BSTAR":0.00026914,"MEAN_MOTION_DOT":5.19e-5,"MEAN_MOTION_DDOT":0}]
